[{"OBJECT_NAME":"ONEWEB-0532","OBJECT_ID":"2023-004A","EPOCH":"2026-03-09T20:39:25.580736","MEAN_MOTION":13.17648914,"ECCENTRICITY":0.0001921,"INCLINATION":87.9162,"RA_OF_ASC_NODE":25.5867,"ARG_OF_PERICENTER":68.5799,"MEAN_ANOMALY":291.5537,"EPHEMERIS_TYPE":0,"CLASSIFICATION_TYPE":"U","NORAD_CAT_ID":55140,"ELEMENT_SET_NO":999,"REV_AT_EPOCH":15450,"BSTAR":-0.00011889847,"MEAN_MOTION_DOT":-3.3e-7,"MEAN_MOTION_DDOT":0},{"OBJECT_NAME":"SL-14 DEB","OBJECT_ID":"1991-056BG","EPOCH":"2026-03-09T19:52:13.204704","MEAN_MOTION":13.19675144,"ECCENTRICITY":0.00085759,"INCLINATION":82.5703,"RA_OF_ASC_NODE":207.5061,"ARG_OF_PERICENTER":310.4458,"MEAN_ANOMALY":49.5918,"EPHEMERIS_TYPE":0,"CLASSIFICATION_TYPE":"U","NORAD_CAT_ID":45318,"ELEMENT_SET_NO":999,"REV_AT_EPOCH":29046,"BSTAR":0.00066831879,"MEAN_MOTION_DOT":2.8e-6,"MEAN_MOTION_DDOT":0}]
